OBJECT_NAME,OBJECT_ID,EPOCH,MEAN_MOTION,ECCENTRICITY,INCLINATION,RA_OF_ASC_NODE,ARG_OF_PERICENTER,MEAN_ANOMALY,EPHEMERIS_TYPE,CLASSIFICATION_TYPE,NORAD_CAT_ID,ELEMENT_SET_NO,REV_AT_EPOCH,BSTAR,MEAN_MOTION_DOT,MEAN_MOTION_DDOT
ROCK,2024-149G,2026-05-16T20:18:57.600000,15.38732494,.0001934,97.3779,220.0099,51.8028,308.3391,0,U,60474,999,9744,.31871E-3,.12122E-3,0
CONNECTA IOT-3,2024-149H,2026-05-16T20:26:23.055072,15.23290478,.0003671,97.3739,213.4399,43.4674,316.6852,0,U,60475,999,9703,.127E-3,.2942E-4,0
QUBE,2024-149J,2026-05-16T20:31:05.602080,15.45683142,.0001345,97.3781,222.7223,33.1154,327.0179,0,U,60476,999,9762,.42226E-3,.20312E-3,0
WREN-1,2024-149L,2026-05-16T20:00:07.579584,15.40267326,.0004239,97.3771,220.6484,35.3786,324.7741,0,U,60478,999,9749,.42282E-3,.16955E-3,0
TOMORROW-S1,2024-149M,2026-05-16T20:37:49.343232,15.32250082,.0002815,97.3753,217.4418,35.8825,324.2605,0,U,60479,999,9729,.17784E-3,.5459E-4,0
FLOCK 4BE-18,2024-149N,2026-05-16T20:28:45.729984,15.40796711,.0003473,97.3735,220.2812,33.8004,326.3464,0,U,60480,999,9748,.34174E-3,.13923E-3,0
FLOCK 4BE-7,2024-149P,2026-05-16T19:50:08.499264,15.38962149,.000285,97.3765,219.6615,44.0540,316.0933,0,U,60481,999,9742,.48029E-3,.18464E-3,0
TOMORROW-S2,2024-149T,2026-05-16T19:48:23.330592,15.32263570,.0003619,97.3822,217.8667,51.8884,308.2683,0,U,60485,999,9728,.19959E-3,.614E-4,0
FLOCK 4BE-36,2024-149U,2026-05-16T20:13:29.085600,15.41687292,.0003836,97.3749,220.9208,45.5696,314.5864,0,U,60486,999,9752,.32416E-3,.13598E-3,0
FLOCK 4BE-25,2024-149V,2026-05-16T16:06:06.897024,15.37965944,.0002466,97.3803,219.6285,54.7634,305.3842,0,U,60487,999,9739,.33264E-3,.12344E-3,0
FLOCK 4BE-31,2024-149W,2026-05-16T16:54:18.837216,15.42820823,.0002963,97.3806,221.5553,57.4523,302.7010,0,U,60488,999,9752,.411E-3,.17939E-3,0
FLOCK 4BE-20,2024-149X,2026-05-16T19:31:42.570624,15.37189241,.0003844,97.3704,218.7313,43.9786,316.1763,0,U,60489,999,9739,.29351E-3,.10611E-3,0
FLOCK 4BE-23,2024-149Y,2026-05-16T19:06:52.309728,15.36828420,.0003889,97.3786,219.0728,52.0334,308.1261,0,U,60490,999,9737,.31067E-3,.11107E-3,0
FLOCK 4BE-15,2024-149Z,2026-05-16T15:33:34.377120,15.52795668,.0003392,97.3702,221.0096,136.4203,223.7318,0,U,60491,999,9752,.17445E-2,.109226E-2,0
FLOCK 4BE-17,2024-149AA,2026-05-16T19:44:01.843584,15.38809198,.0003067,97.3779,219.9674,44.7436,315.4056,0,U,60492,999,9743,.31443E-3,.11989E-3,0
NUSAT-50 (NANCY ROMAN),2024-149AB,2026-05-16T19:58:02.087904,15.29274309,.0002057,97.3792,218.3200,331.3922,28.7205,0,U,60493,999,9733,.25449E-3,.7153E-4,0
FLOCK 4BE-22,2024-149AC,2026-05-16T16:50:15.565056,15.40164336,.0003848,97.3738,219.9893,48.0436,312.1137,0,U,60494,999,9745,.37609E-3,.15016E-3,0
FLOCK 4BE-34,2024-149AD,2026-05-16T20:22:30.257184,15.40201033,.0004256,97.3784,220.9397,57.2057,302.9598,0,U,60495,999,9750,.29538E-3,.11786E-3,0
TYCHE,2024-149AE,2026-05-16T20:30:53.525088,15.25799656,.0003312,97.3757,215.0912,56.4791,303.6763,0,U,60496,999,9712,.12931E-3,.3233E-4,0
FLOCK 4BE-32,2024-149AF,2026-05-16T20:03:57.117600,15.41019463,.0004037,97.3726,220.4518,53.2942,306.8675,0,U,60497,999,9750,.37565E-3,.1543E-3,0
NUSAT-48 (HENRIETTA LEAVITT),2024-149AG,2026-05-16T19:54:20.462400,15.29889708,.0004596,97.3910,218.4887,46.4916,313.6706,0,U,60498,999,9734,.2592E-3,.7428E-4,0
FLOCK 4BE-30,2024-149AH,2026-05-16T16:13:43.279104,15.49184151,.0002048,97.3788,221.3241,163.3219,196.8100,0,U,60499,999,9688,.15825E-2,.86923E-3,0
NUSAT-49 (KLARA DAN VON NEUMANN),2024-149AJ,2026-05-16T16:15:40.332096,15.30287302,.0003779,97.3782,218.1799,65.0362,295.1271,0,U,60500,999,9731,.25581E-3,.742E-4,0
FLOCK 4BE-11,2024-149AK,2026-05-16T15:40:22.448640,15.41876612,.0004081,97.3706,220.4665,51.9615,308.2000,0,U,60501,999,9749,.36482E-3,.15416E-3,0
YAM-7,2024-149AN,2026-05-16T19:51:40.522176,15.31353146,.0004616,97.3788,217.2151,63.1292,297.0421,0,U,60504,999,9725,.18734E-3,.5596E-4,0
FLOCK 4BE-24,2024-149AP,2026-05-16T20:01:54.649920,15.41833198,.0004255,97.3724,220.8980,60.1025,300.0644,0,U,60505,999,9753,.38423E-3,.16219E-3,0
LUR-1,2024-149AQ,2026-05-16T20:21:46.802304,15.29665022,.0005451,97.3744,215.9136,68.5878,291.5943,0,U,60506,999,9718,.19084E-3,.5411E-4,0
TANAGER-1,2024-149AR,2026-05-16T16:16:54.180768,15.44595534,.000601,97.3158,230.8361,62.6675,297.5184,0,U,60507,999,9817,.17346E-3,.7982E-4,0
EAGLEEYE,2024-149AS,2026-05-16T20:05:28.775040,15.65585251,.0001543,97.3732,228.5803,31.4957,328.6395,0,U,60508,999,9802,.57833E-3,.58224E-3,0
