ROCK                    
1 60474U 24149G   26136.84650000  .00012122  00000+0  31871-3 0  9992
2 60474  97.3779 220.0099 0001934  51.8028 308.3391 15.38732494 97445
CONNECTA IOT-3          
1 60475U 24149H   26136.85165573  .00002942  00000+0  12700-3 0  9999
2 60475  97.3739 213.4399 0003671  43.4674 316.6852 15.23290478 97039
QUBE                    
1 60476U 24149J   26136.85492595  .00020312  00000+0  42226-3 0  9994
2 60476  97.3781 222.7223 0001345  33.1154 327.0179 15.45683142 97622
WREN-1                  
1 60478U 24149L   26136.83342106  .00016955  00000+0  42282-3 0  9996
2 60478  97.3771 220.6484 0004239  35.3786 324.7741 15.40267326 97490
TOMORROW-S1             
1 60479U 24149M   26136.85959888  .00005459  00000+0  17784-3 0  9996
2 60479  97.3753 217.4418 0002815  35.8825 324.2605 15.32250082 97293
FLOCK 4BE-18            
1 60480U 24149N   26136.85330706  .00013923  00000+0  34174-3 0  9997
2 60480  97.3735 220.2812 0003473  33.8004 326.3464 15.40796711 97483
FLOCK 4BE-7             
1 60481U 24149P   26136.82648726  .00018464  00000+0  48029-3 0  9998
2 60481  97.3765 219.6615 0002850  44.0540 316.0933 15.38962149 97425
TOMORROW-S2             
1 60485U 24149T   26136.82527003  .00006140  00000+0  19959-3 0  9994
2 60485  97.3822 217.8667 0003619  51.8884 308.2683 15.32263570 97286
FLOCK 4BE-36            
1 60486U 24149U   26136.84269775  .00013598  00000+0  32416-3 0  9994
2 60486  97.3749 220.9208 0003836  45.5696 314.5864 15.41687292 97522
FLOCK 4BE-25            
1 60487U 24149V   26136.67091316  .00012344  00000+0  33264-3 0  9990
2 60487  97.3803 219.6285 0002466  54.7634 305.3842 15.37965944 97393
FLOCK 4BE-31            
1 60488U 24149W   26136.70438469  .00017939  00000+0  41100-3 0  9992
2 60488  97.3806 221.5553 0002963  57.4523 302.7010 15.42820823 97521
FLOCK 4BE-20            
1 60489U 24149X   26136.81368716  .00010611  00000+0  29351-3 0  9996
2 60489  97.3704 218.7313 0003844  43.9786 316.1763 15.37189241 97396
FLOCK 4BE-23            
1 60490U 24149Y   26136.79643877  .00011107  00000+0  31067-3 0  9997
2 60490  97.3786 219.0728 0003889  52.0334 308.1261 15.36828420 97371
FLOCK 4BE-15            
1 60491U 24149Z   26136.64831455  .00109226  00000+0  17445-2 0  9996
2 60491  97.3702 221.0096 0003392 136.4203 223.7318 15.52795668 97529
FLOCK 4BE-17            
1 60492U 24149AA  26136.82224356  .00011989  00000+0  31443-3 0  9996
2 60492  97.3779 219.9674 0003067  44.7436 315.4056 15.38809198 97436
NUSAT-50 (NANCY ROMAN)  
1 60493U 24149AB  26136.83196861  .00007153  00000+0  25449-3 0  9994
2 60493  97.3792 218.3200 0002057 331.3922  28.7205 15.29274309 97332
FLOCK 4BE-22            
1 60494U 24149AC  26136.70156904  .00015016  00000+0  37609-3 0  9993
2 60494  97.3738 219.9893 0003848  48.0436 312.1137 15.40164336 97457
FLOCK 4BE-34            
1 60495U 24149AD  26136.84896131  .00011786  00000+0  29538-3 0  9994
2 60495  97.3784 220.9397 0004256  57.2057 302.9598 15.40201033 97505
TYCHE                   
1 60496U 24149AE  26136.85478617  .00003233  00000+0  12931-3 0  9998
2 60496  97.3757 215.0912 0003312  56.4791 303.6763 15.25799656 97128
FLOCK 4BE-32            
1 60497U 24149AF  26136.83607775  .00015430  00000+0  37565-3 0  9998
2 60497  97.3726 220.4518 0004037  53.2942 306.8675 15.41019463 97503
NUSAT-48 (HENRIETTA LE*)
1 60498U 24149AG  26136.82940350  .00007428  00000+0  25920-3 0  9997
2 60498  97.3910 218.4887 0004596  46.4916 313.6706 15.29889708 97346
FLOCK 4BE-30            
1 60499U 24149AH  26136.67619536  .00086923  00000+0  15825-2 0  9999
2 60499  97.3788 221.3241 0002048 163.3219 196.8100 15.49184151 96881
NUSAT-49 (KLARA DAN VO*)
1 60500U 24149AJ  26136.67755014  .00007420  00000+0  25581-3 0  9990
2 60500  97.3782 218.1799 0003779  65.0362 295.1271 15.30287302 97312
FLOCK 4BE-11            
1 60501U 24149AK  26136.65303760  .00015416  00000+0  36482-3 0  9992
2 60501  97.3706 220.4665 0004081  51.9615 308.2000 15.41876612 97494
YAM-7                   
1 60504U 24149AN  26136.82755234  .00005596  00000+0  18734-3 0  9999
2 60504  97.3788 217.2151 0004616  63.1292 297.0421 15.31353146 97258
FLOCK 4BE-24            
1 60505U 24149AP  26136.83466030  .00016219  00000+0  38423-3 0  9995
2 60505  97.3724 220.8980 0004255  60.1025 300.0644 15.41833198 97533
LUR-1                   
1 60506U 24149AQ  26136.84845836  .00005411  00000+0  19084-3 0  9996
2 60506  97.3744 215.9136 0005451  68.5878 291.5943 15.29665022 97183
TANAGER-1               
1 60507U 24149AR  26136.67840487  .00007982  00000+0  17346-3 0  9999
2 60507  97.3158 230.8361 0006010  62.6675 297.5184 15.44595534 98171
EAGLEEYE                
1 60508U 24149AS  26136.83713860  .00058224  00000+0  57833-3 0  9992
2 60508  97.3732 228.5803 0001543  31.4957 328.6395 15.65585251 98020
